[{"OBJECT_NAME":"STARLINK-31408","OBJECT_ID":"2024-049K","EPOCH":"2026-03-09T05:42:37.057824","MEAN_MOTION":15.27566294,"ECCENTRICITY":0.00010396,"INCLINATION":42.9985,"RA_OF_ASC_NODE":146.3745,"ARG_OF_PERICENTER":282.3363,"MEAN_ANOMALY":77.7372,"EPHEMERIS_TYPE":0,"CLASSIFICATION_TYPE":"U","NORAD_CAT_ID":59240,"ELEMENT_SET_NO":999,"REV_AT_EPOCH":11233,"BSTAR":-2.12307e-7,"MEAN_MOTION_DOT":-2.68e-6,"MEAN_MOTION_DDOT":0},{"OBJECT_NAME":"TEVEL2-8","OBJECT_ID":"2025-052AF","EPOCH":"2026-03-09T16:02:08.542752","MEAN_MOTION":15.28392908,"ECCENTRICITY":0.0008031,"INCLINATION":97.4055,"RA_OF_ASC_NODE":324.2923,"ARG_OF_PERICENTER":124.9191,"MEAN_ANOMALY":235.2804,"EPHEMERIS_TYPE":0,"CLASSIFICATION_TYPE":"U","NORAD_CAT_ID":63239,"ELEMENT_SET_NO":999,"REV_AT_EPOCH":5480,"BSTAR":0.00069303947,"MEAN_MOTION_DOT":0.0001913,"MEAN_MOTION_DDOT":0}]
